MEAN_MOTION;ECCENTRICITY;INCLINATION;RA_OF_ASC_NODE;ARG_OF_PERICENTER;MEAN_ANOMALY;BSTAR;MEAN_MOTION_DOT;MEAN_MOTION_DDOT;TYPE
12.6226616;3.78E-5;52.0013;256.1632;51.0182;102.756;0.00019141;-6.9E-7;0;Globalstar
12.62266184;3.8E-5;52.0012;255.9078;50.921;124.23;0.00020368;-6.7E-7;0;Globalstar
12.62266231;3.77E-5;52.0013;253.3116;52.1843;39.8736;0.00018628;-7.0E-7;0;Globalstar
12.62266276;3.82E-5;52.0013;251.432;51.8681;327.0135;0.0001743;-7.3E-7;0;Globalstar
12.62266283;3.86E-5;52.0014;250.1405;52.2441;95.2517;0.00015241;-7.6E-7;0;Globalstar
12.62266277;3.87E-5;52.0014;248.2866;52.2634;343.8733;8.998E-5;-8.8E-7;0;Globalstar
12.62266274;3.93E-5;52.0014;246.9989;52.6207;106.3471;6.609E-5;-9.2E-7;0;Globalstar
12.62266269;3.9E-5;52.0014;245.148;52.7208;350.2626;8.6305E-6;-1.02E-6;0;Globalstar
12.62266169;4.07E-5;52.0014;241.2254;52.1609;88.7952;-9.4602E-5;-1.21E-6;0;Globalstar
12.62266142;4.05E-5;52.0014;240.9721;52.0635;107.2005;-0.00011589;-1.25E-6;0;Globalstar
12.62266189;4.15E-5;52.0015;238.3568;52.2211;52.709;-8.4762E-5;-1.19E-6;0;Globalstar
12.62266216;4.28E-5;52.0015;236.2328;51.7902;345.0926;-6.1237E-5;-1.15E-6;0;Globalstar
12.62266233;4.25E-5;52.0015;235.1937;51.7208;96.8266;-3.5916E-5;-1.1E-6;0;Globalstar
12.62266261;4.32E-5;52.0015;232.3293;51.552;54.7326;1.4922E-5;-1.01E-6;0;Globalstar
12.62266266;4.21E-5;52.0016;228.9366;51.1146;81.7289;5.1019E-5;-9.5E-7;0;Globalstar
12.62266227;4.18E-5;52.0017;225.7969;50.9994;90.6347;5.1226E-5;-9.5E-7;0;Globalstar
12.62266239;4.16E-5;52.0018;225.1373;50.5245;356.017;5.958E-5;-9.3E-7;0;Globalstar
12.62266188;4.08E-5;52.0018;223.4116;50.0769;53.5848;2.6509E-5;-9.9E-7;0;Globalstar
12.62266157;3.94E-5;52.0023;220.7782;48.332;28.8639;-8.7555E-5;-1.19E-6;0;Globalstar
12.62266188;4.01E-5;52.0024;220.2763;48.4436;58.3341;-6.5922E-5;-1.16E-6;0;Globalstar
12.62266204;3.96E-5;52.0024;217.6428;47.7604;31.8943;-4.5532E-5;-1.12E-6;0;Globalstar
12.62266208;3.97E-5;52.0024;217.3871;47.7451;53.8111;-3.9897E-5;-1.11E-6;0;Globalstar
12.6226616;4.04E-5;52.0024;214.7517;50.4515;26.7363;-4.2816E-5;-1.11E-6;0;Globalstar
12.62266159;4.04E-5;52.0025;214.2495;49.5923;57.5978;-4.5575E-5;-1.12E-6;0;Globalstar
12.6226613;4.15E-5;52.0025;210.8641;49.4501;73.5576;-4.9822E-5;-1.13E-6;0;Globalstar
12.62266123;4.16E-5;52.0025;210.603;49.1785;103.8108;-5.4167E-5;-1.13E-6;0;Globalstar
12.62266135;4.18E-5;52.0026;207.7173;48.2544;94.4014;-2.7358E-5;-1.09E-6;0;Globalstar
12.62266162;4.2E-5;52.0027;204.8368;47.3972;76.9877;-7.9583E-6;-1.05E-6;0;Globalstar
12.62266152;4.21E-5;52.0027;202.6986;47.393;30.2289;-1.2388E-5;-1.06E-6;0;Globalstar
12.6226617;4.23E-5;52.0027;202.4623;46.875;23.8259;-2.2918E-6;-1.04E-6;0;Globalstar
12.62266117;4.33E-5;52.0023;199.5642;48.5447;30.2524;-6.5609E-5;-1.16E-6;0;Globalstar
12.62266116;4.35E-5;52.0023;197.4445;47.4391;317.0147;-2.2885E-5;-1.08E-6;0;Globalstar
12.62266135;4.4E-5;52.0023;196.436;47.7346;22.9674;1.7526E-6;-1.03E-6;0;Globalstar
12.62266143;4.45E-5;52.0023;194.3001;46.6205;333.933;4.1419E-5;-9.6E-7;0;Globalstar
12.62266158;4.48E-5;52.0023;193.2821;46.6207;54.3609;6.8443E-5;-9.2E-7;0;Globalstar
12.62266195;4.54E-5;52.0023;190.4095;45.1834;26.0197;0.00012053;-8.2E-7;0;Globalstar
12.62266212;4.57E-5;52.0023;190.1583;45.5061;40.7916;0.00013706;-7.9E-7;0;Globalstar
12.62266235;4.64E-5;52.0024;189.3973;45.3539;97.6452;0.00014093;-7.9E-7;0;Globalstar
12.62266283;4.7E-5;52.0024;186.5136;44.6502;85.1088;0.00017422;-7.3E-7;0;Globalstar
12.622663;4.72E-5;52.0024;184.3828;44.5164;27.5527;0.00016854;-7.4E-7;0;Globalstar
12.62266318;4.79E-5;52.0024;182.2498;44.2653;333.4455;0.00014694;-7.7E-7;0;Globalstar
12.62266332;4.79E-5;52.0024;181.2474;44.4627;30.2382;0.00014207;-7.8E-7;0;Globalstar
12.62266353;4.8E-5;52.0023;179.1044;43.9291;351.2928;0.00011073;-8.4E-7;0;Globalstar
12.62266395;4.87E-5;52.0023;178.1064;44.3833;41.4046;0.00012443;-8.1E-7;0;Globalstar
12.62266422;4.96E-5;52.0022;175.4584;44.0192;36.5085;7.7152E-5;-9.0E-7;0;Globalstar
12.62266421;4.96E-5;52.0022;175.2033;43.574;57.8722;7.63E-5;-9.0E-7;0;Globalstar
12.62266453;5.11E-5;52.0021;172.0798;43.7109;42.6069;4.5822E-5;-9.6E-7;0;Globalstar
12.62266511;5.28E-5;52.0019;168.4188;41.8662;111.9302;4.9749E-5;-9.5E-7;0;Globalstar
12.62266539;5.39E-5;52.0017;165.5267;41.6201;111.209;6.9183E-5;-9.1E-7;0;Globalstar
12.62266539;5.45E-5;52.0016;163.1503;41.9126;59.7712;7.639E-5;-9.0E-7;0;Globalstar
12.62266551;5.48E-5;52.0015;162.912;41.8281;55.7602;8.9548E-5;-8.8E-7;0;Globalstar
12.62266582;5.62E-5;52.0014;160.0261;41.5844;45.7725;0.00012863;-8.1E-7;0;Globalstar
12.62266594;5.63E-5;52.0014;159.7334;41.7008;122.8381;0.00013882;-7.9E-7;0;Globalstar
12.62266623;5.84E-5;52.0013;156.3638;40.7769;115.8092;0.00016862;-7.4E-7;0;Globalstar
12.62266623;5.96E-5;52.0013;153.965;41.1939;97.6418;0.00016795;-7.4E-7;0;Globalstar
12.62266649;6.05E-5;52.0012;152.1174;41.0247;337.0081;0.00017124;-7.3E-7;0;Globalstar
12.62266657;6.18E-5;52.0012;150.3372;40.5468;116.0048;0.00015618;-7.6E-7;0;Globalstar
12.6226666;6.31E-5;52.0011;147.6803;41.2726;123.0584;0.00012119;-8.2E-7;0;Globalstar
12.62266663;6.33E-5;52.0011;147.4477;41.0771;110.5245;0.00011741;-8.3E-7;0;Globalstar
12.62266652;6.52E-5;52.0011;144.3107;41.2725;115.0828;4.6185E-5;-9.5E-7;0;Globalstar
12.62266604;6.66E-5;52.0015;141.6842;41.3169;77.1482;5.1578E-6;-1.03E-6;0;Globalstar
12.62266594;6.74E-5;52.0015;139.5433;41.7732;33.8262;-7.782E-6;-1.05E-6;0;Globalstar
12.62266595;6.78E-5;52.0015;138.799;41.813;65.2743;-4.1281E-6;-1.05E-6;0;Globalstar
12.62266597;6.9E-5;52.0015;136.4069;42.2273;37.0607;-9.8689E-6;-1.06E-6;0;Globalstar
12.62266594;6.9E-5;52.0015;135.918;42.3945;47.1053;-8.2622E-6;-1.05E-6;0;Globalstar
12.62266582;7.04E-5;52.0015;133.0161;43.1433;59.8473;-2.0742E-5;-1.07E-6;0;Globalstar
12.62266584;7.1E-5;52.0014;132.5108;42.99;94.6938;-1.7908E-5;-1.07E-6;0;Globalstar
12.62266577;7.29E-5;52.0015;129.6303;43.577;75.733;-2.5268E-5;-1.08E-6;0;Globalstar
12.62266582;7.32E-5;52.0015;129.3681;43.568;107.3754;-2.4995E-5;-1.08E-6;0;Globalstar
12.62266577;7.53E-5;52.0015;126.4842;44.0932;93.6144;-3.1498E-5;-1.09E-6;0;Globalstar
12.62266574;7.55E-5;52.0015;126.2299;44.0713;113.3108;-3.6743E-5;-1.1E-6;0;Globalstar
12.62266562;7.74E-5;52.0016;123.3423;44.8123;104.8334;-4.359E-5;-1.12E-6;0;Globalstar
12.62266523;7.9E-5;52.0016;120.2033;45.728;111.7142;-6.9919E-5;-1.16E-6;0;Globalstar
12.62266474;8.19E-5;52.0017;115.957;46.9963;331.6034;-8.6191E-5;-1.19E-6;0;Globalstar
12.62266457;8.2E-5;52.0018;115.4363;47.3221;28.9277;-9.7625E-5;-1.21E-6;0;Globalstar
12.62266435;8.32E-5;52.0018;113.066;47.8574;328.0711;-0.00010125;-1.22E-6;0;Globalstar
12.62266426;8.4E-5;52.0019;112.3001;48.2595;31.4407;-0.00010382;-1.22E-6;0;Globalstar
12.62266419;8.45E-5;52.0019;111.2897;48.5297;100.0804;-0.00010267;-1.22E-6;0;Globalstar
12.62266413;8.54E-5;52.002;109.9248;48.9365;338.0058;-9.2694E-5;-1.2E-6;0;Globalstar
12.62266412;8.53E-5;52.002;109.175;49.2885;17.2704;-9.2965E-5;-1.2E-6;0;Globalstar
12.62266404;8.6E-5;52.002;108.3788;49.4981;126.1268;-9.3832E-5;-1.21E-6;0;Globalstar
12.62266382;8.72E-5;52.0022;106.015;50.4701;55.1514;-9.2168E-5;-1.2E-6;0;Globalstar
12.6226637;8.8E-5;52.0022;105.2629;50.7147;98.1684;-9.6952E-5;-1.21E-6;0;Globalstar
12.62266323;9.07E-5;52.0024;102.1216;51.9226;108.1554;-0.00011356;-1.24E-6;0;Globalstar
12.62266298;9.17E-5;52.0025;99.2358;52.9586;96.6718;-0.00011875;-1.25E-6;0;Globalstar
12.62266254;9.33E-5;52.0026;97.1209;54.011;14.0115;-0.00013887;-1.29E-6;0;Globalstar
12.62266255;9.44E-5;52.0027;96.0946;54.3056;106.5018;-0.00013112;-1.27E-6;0;Globalstar
12.62266234;9.53E-5;52.0028;93.9632;55.2242;48.6315;-0.00013583;-1.28E-6;0;Globalstar
12.6226622;9.74E-5;52.003;90.8281;56.5736;49.2516;-0.00012129;-1.26E-6;0;Globalstar
12.62266199;9.79E-5;52.0031;90.0686;56.6665;103.5162;-0.00013347;-1.28E-6;0;Globalstar
12.62266158;9.96E-5;52.0032;87.1829;57.8786;91.8821;-0.00014277;-1.29E-6;0;Globalstar
12.62266109;0.0001019;52.0035;84.0417;59.08;101.7985;-0.0001507;-1.31E-6;0;Globalstar
12.62266108;0.000104;52.0037;81.1563;60.4776;89.5756;-0.00012605;-1.26E-6;0;Globalstar
12.62266079;0.0001047;52.0038;79.551;61.2484;326.2971;-0.0001326;-1.28E-6;0;Globalstar
12.62266074;0.0001055;52.0038;78.7747;61.5604;45.2957;-0.0001239;-1.26E-6;0;Globalstar
12.62266083;0.0001059;52.0038;78.2693;61.7224;80.0764;-0.00011216;-1.24E-6;0;Globalstar
12.62266086;0.0001073;52.004;75.6141;62.8919;84.2556;-8.4687E-5;-1.19E-6;0;Globalstar
12.62266086;0.0001079;52.0042;73.5245;63.8214;323.981;-7.0127E-5;-1.16E-6;0;Globalstar
12.62266094;0.0001092;52.0042;72.2427;64.4936;77.657;-5.7085E-5;-1.14E-6;0;Globalstar
12.62266092;0.0001117;52.0042;69.1022;66.1542;86.0166;-7.3249E-5;-1.17E-6;0;Globalstar
12.62266085;0.0001121;52.0042;67.498;67.0652;321.0209;-8.3081E-5;-1.19E-6;0;Globalstar
12.62266094;0.0001139;52.0044;64.852;68.2358;311.5491;-6.1216E-5;-1.15E-6;0;Globalstar
12.622661;0.0001143;52.0044;64.3565;68.5732;331.2826;-6.6235E-5;-1.16E-6;0;Globalstar
12.62266119;0.0001152;52.0045;61.4702;70.123;320.349;-2.9915E-5;-1.09E-6;0;Globalstar
12.62266111;0.0001162;52.0045;60.7101;70.5807;15.0655;-1.602E-5;-1.07E-6;0;Globalstar
12.62266143;0.0001175;52.0046;58.3301;71.7762;328.4269;1.0118E-5;-1.02E-6;0;Globalstar
12.62266133;0.000118;52.0047;57.5378;72.0665;71.4126;2.1067E-5;-1.0E-6;0;Globalstar
12.6226614;0.0001184;52.0047;57.0495;72.3688;80.3389;2.7245E-5;-9.9E-7;0;Globalstar
12.62266137;0.000119;52.0048;55.4442;73.3024;316.88;2.9289E-5;-9.9E-7;0;Globalstar
12.62266117;0.0001198;52.0048;54.3981;73.8429;78.8203;3.4662E-5;-9.8E-7;0;Globalstar
12.62266123;0.000121;52.0049;52.0366;75.2664;4.2665;3.8618E-5;-9.7E-7;0;Globalstar
12.62266149;0.0001215;52.0049;51.0233;75.5105;77.4654;5.9597E-5;-9.3E-7;0;Globalstar
12.62266173;0.000122;52.005;49.418;76.4376;314.0715;7.0399E-5;-9.1E-7;0;Globalstar
12.62266178;0.0001231;52.0051;47.8957;77.0372;67.2616;7.1774E-5;-9.1E-7;0;Globalstar
12.62266176;0.0001239;52.0051;46.0104;78.3013;1.6427;6.1743E-5;-9.3E-7;0;Globalstar
